[{"OBJECT_NAME":"KHALIFASAT","OBJECT_ID":"2018-084F","EPOCH":"2026-03-09T22:37:07.705056","MEAN_MOTION":15.0097364,"ECCENTRICITY":0.00062701,"INCLINATION":98.0864,"RA_OF_ASC_NODE":247.4233,"ARG_OF_PERICENTER":83.8573,"MEAN_ANOMALY":276.3364,"EPHEMERIS_TYPE":0,"CLASSIFICATION_TYPE":"U","NORAD_CAT_ID":43676,"ELEMENT_SET_NO":999,"REV_AT_EPOCH":40088,"BSTAR":0.00043724412,"MEAN_MOTION_DOT":5.516e-5,"MEAN_MOTION_DDOT":0},{"OBJECT_NAME":"STARLINK-33885","OBJECT_ID":"2025-094Y","EPOCH":"2026-03-09T20:55:24.604320","MEAN_MOTION":14.98331241,"ECCENTRICITY":0.00030576,"INCLINATION":70.0018,"RA_OF_ASC_NODE":233.8651,"ARG_OF_PERICENTER":266.2522,"MEAN_ANOMALY":93.8288,"EPHEMERIS_TYPE":0,"CLASSIFICATION_TYPE":"U","NORAD_CAT_ID":63886,"ELEMENT_SET_NO":999,"REV_AT_EPOCH":4723,"BSTAR":0.0004096482,"MEAN_MOTION_DOT":4.798e-5,"MEAN_MOTION_DDOT":0}]
